41925,IRIDIUM 112,2017,100.4,860.0,+,86.4,Active,1,LEO,USA,USA,Commercial/Government,Communications,Falcon,1 41925U 17003J   24272.68201221  .00000349  00000+0  11739-3 0  9990,2 41925  86.4022 350.1248 0001983  88.3100 271.8322 14.34219472403479,14.34219472,0.0001983,LEO
41926,IRIDIUM 111,2017,100.4,860.0,+,86.4,Active,1,LEO,USA,USA,Commercial/Government,Communications,Falcon,1 41926U 17003K   24272.32048414  .00000626  00000+0  21661-3 0  9998,2 41926  86.4022 350.3323 0001910  94.3017 265.8397 14.34215802403401,14.34215802,0.000191,LEO
42803,IRIDIUM 113,2017,100.4,860.0,+,86.4,Active,1,LEO,USA,USA,Commercial/Government,Communications,Falcon,1 42803U 17039A   24272.92835284  .00000838  00000+0  29221-3 0  9992,2 42803  86.3992 223.8167 0001966  83.4870 276.6549 14.34226779381429,14.34226779,0.0001966,LEO
42804,IRIDIUM 123,2017,100.4,860.0,+,86.39,Active,1,LEO,USA,USA,Commercial/Government,Communications,Falcon,1 42804U 17039B   24272.96984817  .00000006  00000+0 -49467-5 0  9998,2 42804  86.3922 255.2847 0002080  92.2551 267.8883 14.34217655380198,14.34217655,0.000208,LEO
42805,IRIDIUM 120,2017,100.4,860.0,+,86.4,Active,1,LEO,USA,USA,Commercial/Government,Communications,Falcon,1 42805U 17039C   24272.92202537  .00000273  00000+0  90490-4 0  9993,2 42805  86.3981 223.6833 0002378  85.6878 274.4589 14.34215074381412,14.34215074,0.0002378,LEO
42806,IRIDIUM 115,2017,99.77,860.0,+,86.45,Active,1,LEO,USA,USA,Commercial/Government,Communications,Falcon,1 42806U 17039D   24272.92243849  .00000994  00000+0  28962-3 0  9999,2 42806  86.4517 223.7228 0001911  80.3313 279.8104 14.43272958383931,14.43272958,0.0001911,LEO
42808,IRIDIUM 117,2017,100.4,860.0,+,86.39,Active,1,LEO,USA,USA,Commercial/Government,Communications,Falcon,1 42808U 17039F   24273.22989525 -.00000139  00000+0 -56557-4 0  9998,2 42808  86.3922 255.1402 0002000  89.0032 271.1393 14.34216149380267,14.34216149,0.0002,LEO
