<?xml version="1.0" encoding="UTF-8"?>
<ndm xmlns:xsi="http://www.w3.org/2001/XMLSchema-instance" xsi:noNamespaceSchemaLocation="https://sanaregistry.org/r/ndmxml_unqualified/ndmxml-2.0.0-master-2.0.xsd">
<omm id="CCSDS_OMM_VERS" version="2.0">
<header><CREATION_DATE/><ORIGINATOR/></header><body><segment><metadata><OBJECT_NAME>IRIDIUM 112</OBJECT_NAME><OBJECT_ID>2017-003J</OBJECT_ID><CENTER_NAME>EARTH</CENTER_NAME><REF_FRAME>TEME</REF_FRAME><TIME_SYSTEM>UTC</TIME_SYSTEM><MEAN_ELEMENT_THEORY>SGP4</MEAN_ELEMENT_THEORY></metadata><data><meanElements><EPOCH>2024-09-28T16:22:05.854944</EPOCH><MEAN_MOTION>14.34219472</MEAN_MOTION><ECCENTRICITY>.0001983</ECCENTRICITY><INCLINATION>86.4022</INCLINATION><RA_OF_ASC_NODE>350.1248</RA_OF_ASC_NODE><ARG_OF_PERICENTER>88.3100</ARG_OF_PERICENTER><MEAN_ANOMALY>271.8322</MEAN_ANOMALY></meanElements><tleParameters><EPHEMERIS_TYPE>0</EPHEMERIS_TYPE><CLASSIFICATION_TYPE>U</CLASSIFICATION_TYPE><NORAD_CAT_ID>41925</NORAD_CAT_ID><ELEMENT_SET_NO>999</ELEMENT_SET_NO><REV_AT_EPOCH>40347</REV_AT_EPOCH><BSTAR>.11739E-3</BSTAR><MEAN_MOTION_DOT>.349E-5</MEAN_MOTION_DOT><MEAN_MOTION_DDOT>0</MEAN_MOTION_DDOT></tleParameters></data></segment></body></omm>
<omm id="CCSDS_OMM_VERS" version="2.0">
<header><CREATION_DATE/><ORIGINATOR/></header><body><segment><metadata><OBJECT_NAME>IRIDIUM 111</OBJECT_NAME><OBJECT_ID>2017-003K</OBJECT_ID><CENTER_NAME>EARTH</CENTER_NAME><REF_FRAME>TEME</REF_FRAME><TIME_SYSTEM>UTC</TIME_SYSTEM><MEAN_ELEMENT_THEORY>SGP4</MEAN_ELEMENT_THEORY></metadata><data><meanElements><EPOCH>2024-09-28T07:41:29.829696</EPOCH><MEAN_MOTION>14.34215802</MEAN_MOTION><ECCENTRICITY>.000191</ECCENTRICITY><INCLINATION>86.4022</INCLINATION><RA_OF_ASC_NODE>350.3323</RA_OF_ASC_NODE><ARG_OF_PERICENTER>94.3017</ARG_OF_PERICENTER><MEAN_ANOMALY>265.8397</MEAN_ANOMALY></meanElements><tleParameters><EPHEMERIS_TYPE>0</EPHEMERIS_TYPE><CLASSIFICATION_TYPE>U</CLASSIFICATION_TYPE><NORAD_CAT_ID>41926</NORAD_CAT_ID><ELEMENT_SET_NO>999</ELEMENT_SET_NO><REV_AT_EPOCH>40340</REV_AT_EPOCH><BSTAR>.21661E-3</BSTAR><MEAN_MOTION_DOT>.626E-5</MEAN_MOTION_DOT><MEAN_MOTION_DDOT>0</MEAN_MOTION_DDOT></tleParameters></data></segment></body></omm>
<omm id="CCSDS_OMM_VERS" version="2.0">
<header><CREATION_DATE/><ORIGINATOR/></header><body><segment><metadata><OBJECT_NAME>IRIDIUM 113</OBJECT_NAME><OBJECT_ID>2017-039A</OBJECT_ID><CENTER_NAME>EARTH</CENTER_NAME><REF_FRAME>TEME</REF_FRAME><TIME_SYSTEM>UTC</TIME_SYSTEM><MEAN_ELEMENT_THEORY>SGP4</MEAN_ELEMENT_THEORY></metadata><data><meanElements><EPOCH>2024-09-28T22:16:49.685376</EPOCH><MEAN_MOTION>14.34226779</MEAN_MOTION><ECCENTRICITY>.0001966</ECCENTRICITY><INCLINATION>86.3992</INCLINATION><RA_OF_ASC_NODE>223.8167</RA_OF_ASC_NODE><ARG_OF_PERICENTER>83.4870</ARG_OF_PERICENTER><MEAN_ANOMALY>276.6549</MEAN_ANOMALY></meanElements><tleParameters><EPHEMERIS_TYPE>0</EPHEMERIS_TYPE><CLASSIFICATION_TYPE>U</CLASSIFICATION_TYPE><NORAD_CAT_ID>42803</NORAD_CAT_ID><ELEMENT_SET_NO>999</ELEMENT_SET_NO><REV_AT_EPOCH>38142</REV_AT_EPOCH><BSTAR>.29221E-3</BSTAR><MEAN_MOTION_DOT>.838E-5</MEAN_MOTION_DOT><MEAN_MOTION_DDOT>0</MEAN_MOTION_DDOT></tleParameters></data></segment></body></omm>
<omm id="CCSDS_OMM_VERS" version="2.0">
<header><CREATION_DATE/><ORIGINATOR/></header><body><segment><metadata><OBJECT_NAME>IRIDIUM 123</OBJECT_NAME><OBJECT_ID>2017-039B</OBJECT_ID><CENTER_NAME>EARTH</CENTER_NAME><REF_FRAME>TEME</REF_FRAME><TIME_SYSTEM>UTC</TIME_SYSTEM><MEAN_ELEMENT_THEORY>SGP4</MEAN_ELEMENT_THEORY></metadata><data><meanElements><EPOCH>2024-09-28T23:16:34.881888</EPOCH><MEAN_MOTION>14.34217655</MEAN_MOTION><ECCENTRICITY>.000208</ECCENTRICITY><INCLINATION>86.3922</INCLINATION><RA_OF_ASC_NODE>255.2847</RA_OF_ASC_NODE><ARG_OF_PERICENTER>92.2551</ARG_OF_PERICENTER><MEAN_ANOMALY>267.8883</MEAN_ANOMALY></meanElements><tleParameters><EPHEMERIS_TYPE>0</EPHEMERIS_TYPE><CLASSIFICATION_TYPE>U</CLASSIFICATION_TYPE><NORAD_CAT_ID>42804</NORAD_CAT_ID><ELEMENT_SET_NO>999</ELEMENT_SET_NO><REV_AT_EPOCH>38019</REV_AT_EPOCH><BSTAR>-.49467E-5</BSTAR><MEAN_MOTION_DOT>.6E-7</MEAN_MOTION_DOT><MEAN_MOTION_DDOT>0</MEAN_MOTION_DDOT></tleParameters></data></segment></body></omm>
<omm id="CCSDS_OMM_VERS" version="2.0">
<header><CREATION_DATE/><ORIGINATOR/></header><body><segment><metadata><OBJECT_NAME>IRIDIUM 120</OBJECT_NAME><OBJECT_ID>2017-039C</OBJECT_ID><CENTER_NAME>EARTH</CENTER_NAME><REF_FRAME>TEME</REF_FRAME><TIME_SYSTEM>UTC</TIME_SYSTEM><MEAN_ELEMENT_THEORY>SGP4</MEAN_ELEMENT_THEORY></metadata><data><meanElements><EPOCH>2024-09-28T22:07:42.991968</EPOCH><MEAN_MOTION>14.34215074</MEAN_MOTION><ECCENTRICITY>.0002378</ECCENTRICITY><INCLINATION>86.3981</INCLINATION><RA_OF_ASC_NODE>223.6833</RA_OF_ASC_NODE><ARG_OF_PERICENTER>85.6878</ARG_OF_PERICENTER><MEAN_ANOMALY>274.4589</MEAN_ANOMALY></meanElements><tleParameters><EPHEMERIS_TYPE>0</EPHEMERIS_TYPE><CLASSIFICATION_TYPE>U</CLASSIFICATION_TYPE><NORAD_CAT_ID>42805</NORAD_CAT_ID><ELEMENT_SET_NO>999</ELEMENT_SET_NO><REV_AT_EPOCH>38141</REV_AT_EPOCH><BSTAR>.9049E-4</BSTAR><MEAN_MOTION_DOT>.273E-5</MEAN_MOTION_DOT><MEAN_MOTION_DDOT>0</MEAN_MOTION_DDOT></tleParameters></data></segment></body></omm>
<omm id="CCSDS_OMM_VERS" version="2.0">
<header><CREATION_DATE/><ORIGINATOR/></header><body><segment><metadata><OBJECT_NAME>IRIDIUM 115</OBJECT_NAME><OBJECT_ID>2017-039D</OBJECT_ID><CENTER_NAME>EARTH</CENTER_NAME><REF_FRAME>TEME</REF_FRAME><TIME_SYSTEM>UTC</TIME_SYSTEM><MEAN_ELEMENT_THEORY>SGP4</MEAN_ELEMENT_THEORY></metadata><data><meanElements><EPOCH>2024-09-28T22:08:18.685536</EPOCH><MEAN_MOTION>14.43272958</MEAN_MOTION><ECCENTRICITY>.0001911</ECCENTRICITY><INCLINATION>86.4517</INCLINATION><RA_OF_ASC_NODE>223.7228</RA_OF_ASC_NODE><ARG_OF_PERICENTER>80.3313</ARG_OF_PERICENTER><MEAN_ANOMALY>279.8104</MEAN_ANOMALY></meanElements><tleParameters><EPHEMERIS_TYPE>0</EPHEMERIS_TYPE><CLASSIFICATION_TYPE>U</CLASSIFICATION_TYPE><NORAD_CAT_ID>42806</NORAD_CAT_ID><ELEMENT_SET_NO>999</ELEMENT_SET_NO><REV_AT_EPOCH>38393</REV_AT_EPOCH><BSTAR>.28962E-3</BSTAR><MEAN_MOTION_DOT>.994E-5</MEAN_MOTION_DOT><MEAN_MOTION_DDOT>0</MEAN_MOTION_DDOT></tleParameters></data></segment></body></omm>
<omm id="CCSDS_OMM_VERS" version="2.0">
<header><CREATION_DATE/><ORIGINATOR/></header><body><segment><metadata><OBJECT_NAME>IRIDIUM 117</OBJECT_NAME><OBJECT_ID>2017-039F</OBJECT_ID><CENTER_NAME>EARTH</CENTER_NAME><REF_FRAME>TEME</REF_FRAME><TIME_SYSTEM>UTC</TIME_SYSTEM><MEAN_ELEMENT_THEORY>SGP4</MEAN_ELEMENT_THEORY></metadata><data><meanElements><EPOCH>2024-09-29T05:31:02.949600</EPOCH><MEAN_MOTION>14.34216149</MEAN_MOTION><ECCENTRICITY>.0002</ECCENTRICITY><INCLINATION>86.3922</INCLINATION><RA_OF_ASC_NODE>255.1402</RA_OF_ASC_NODE><ARG_OF_PERICENTER>89.0032</ARG_OF_PERICENTER><MEAN_ANOMALY>271.1393</MEAN_ANOMALY></meanElements><tleParameters><EPHEMERIS_TYPE>0</EPHEMERIS_TYPE><CLASSIFICATION_TYPE>U</CLASSIFICATION_TYPE><NORAD_CAT_ID>42808</NORAD_CAT_ID><ELEMENT_SET_NO>999</ELEMENT_SET_NO><REV_AT_EPOCH>38026</REV_AT_EPOCH><BSTAR>-.56557E-4</BSTAR><MEAN_MOTION_DOT>-.139E-5</MEAN_MOTION_DOT><MEAN_MOTION_DDOT>0</MEAN_MOTION_DDOT></tleParameters></data></segment></body></omm>

</ndm>
